{"type": "FeatureCollection", "features": [ {"type": "Feature", "properties": {"norad_id": 44622, "name": "GAOFEN-10R", "group": "resource", "lat": -63.17534634955634, "lon": -50.04894488783865, "alt_km": 629.412830491704, "timestamp": "2025-12-12T05:47:28.429717+00:00", "meta": {"OBJECT_NAME": "GAOFEN-10R", "OBJECT_ID": "2019-066A", "EPOCH": "2025-12-12T01:13:19.584768", "MEAN_MOTION": 14.82788951, "ECCENTRICITY": 0.00079317, "INCLINATION": 98.0275, "RA_OF_ASC_NODE": 293.5545, "ARG_OF_PERICENTER": 44.0423, "MEAN_ANOMALY": 316.1421, "EPHEMERIS_TYPE": 0, "CLASSIFICATION_TYPE": "U", "NORAD_CAT_ID": 44622, "ELEMENT_SET_NO": 999, "REV_AT_EPOCH": 33464, "BSTAR": 0.00035205853, "MEAN_MOTION_DOT": 2.794e-05, "MEAN_MOTION_DDOT": 0}, "tle": {"line1": "1 44622U 19066A   25346.05092112  .00002794  00000+0  35206-3 0  9990", "line2": "2 44622  98.0275 293.5545 0007931  44.0423 316.1421 14.82788951334642"}}, "geometry": {"type": "Point", "coordinates": [-50.04894488783865, -63.17534634955634]}}, {"type": "Feature", "properties": {"norad_id": 44804, "name": "CARTOSAT-3", "group": "resource", "lat": 33.94431328793985, "lon": 40.77259320833565, "alt_km": 500.0058615131684, "timestamp": "2025-12-12T05:47:28.429727+00:00", "meta": {"OBJECT_NAME": "CARTOSAT-3", "OBJECT_ID": "2019-081A", "EPOCH": "2025-12-11T18:34:36.084864", "MEAN_MOTION": 15.19360977, "ECCENTRICITY": 0.00139751, "INCLINATION": 97.4581, "RA_OF_ASC_NODE": 45.3698, "ARG_OF_PERICENTER": 90.0575, "MEAN_ANOMALY": 270.2261, "EPHEMERIS_TYPE": 0, "CLASSIFICATION_TYPE": "U", "NORAD_CAT_ID": 44804, "ELEMENT_SET_NO": 999, "REV_AT_EPOCH": 33501, "BSTAR": 0.00036661304, "MEAN_MOTION_DOT": 7.705e-05, "MEAN_MOTION_DDOT": 0}, "tle": {"line1": "1 44804U 19081A   25345.77402876  .00007705  00000+0  36661-3 0  9992", "line2": "2 44804  97.4581  45.3698 0013975  90.0575 270.2261 15.19360977335012"}}, "geometry": {"type": "Point", "coordinates": [40.77259320833565, 33.94431328793985]}}, {"type": "Feature", "properties": {"norad_id": 44819, "name": "GAOFEN-12 01", "group": "resource", "lat": -26.522177506851666, "lon": 168.60632525183806, "alt_km": 632.2217174944562, "timestamp": "2025-12-12T05:47:28.429737+00:00", "meta": {"OBJECT_NAME": "GAOFEN-12 01", "OBJECT_ID": "2019-082A", "EPOCH": "2025-12-11T23:59:41.534592", "MEAN_MOTION": 14.80656054, "ECCENTRICITY": 0.00012843, "INCLINATION": 97.8126, "RA_OF_ASC_NODE": 352.3002, "ARG_OF_PERICENTER": 238.396, "MEAN_ANOMALY": 121.7127, "EPHEMERIS_TYPE": 0, "CLASSIFICATION_TYPE": "U", "NORAD_CAT_ID": 44819, "ELEMENT_SET_NO": 999, "REV_AT_EPOCH": 32639, "BSTAR": 0.00011407752, "MEAN_MOTION_DOT": 8.26e-06, "MEAN_MOTION_DDOT": 0}, "tle": {"line1": "1 44819U 19082A   25345.99978628  .00000826  00000+0  11408-3 0  9995", "line2": "2 44819  97.8126 352.3002 0001284 238.3960 121.7127 14.80656054326395"}}, "geometry": {"type": "Point", "coordinates": [168.60632525183806, -26.522177506851666]}}, {"type": "Feature", "properties": {"norad_id": 44873, "name": "CSG-1", "group": "resource", "lat": -44.64110885509817, "lon": 175.43513758298013, "alt_km": 629.8749411656227, "timestamp": "2025-12-12T05:47:28.429748+00:00", "meta": {"OBJECT_NAME": "CSG-1", "OBJECT_ID": "2019-092A", "EPOCH": "2025-12-12T01:08:02.417280", "MEAN_MOTION": 14.82162876, "ECCENTRICITY": 0.00014448, "INCLINATION": 97.881, "RA_OF_ASC_NODE": 167.3818, "ARG_OF_PERICENTER": 84.6461, "MEAN_ANOMALY": 275.4916, "EPHEMERIS_TYPE": 0, "CLASSIFICATION_TYPE": "U", "NORAD_CAT_ID": 44873, "ELEMENT_SET_NO": 999, "REV_AT_EPOCH": 32375, "BSTAR": 0.00013296612, "MEAN_MOTION_DOT": 1.007e-05, "MEAN_MOTION_DDOT": 0}, "tle": {"line1": "1 44873U 19092A   25346.04725020  .00001007  00000+0  13297-3 0  9999", "line2": "2 44873  97.8810 167.3818 0001444  84.6461 275.4916 14.82162876323756"}}, "geometry": {"type": "Point", "coordinates": [175.43513758298013, -44.64110885509817]}}, {"type": "Feature", "properties": {"norad_id": 46277, "name": "NEMO-HD", "group": "resource", "lat": 9.291637610933407, "lon": 44.15665898339496, "alt_km": 446.13210274266476, "timestamp": "2025-12-12T05:47:28.429758+00:00", "meta": {"OBJECT_NAME": "NEMO-HD", "OBJECT_ID": "2020-061F", "EPOCH": "2025-12-11T23:30:50.704992", "MEAN_MOTION": 15.40300762, "ECCENTRICITY": 0.00019279, "INCLINATION": 97.2213, "RA_OF_ASC_NODE": 45.0871, "ARG_OF_PERICENTER": 57.5782, "MEAN_ANOMALY": 302.5651, "EPHEMERIS_TYPE": 0, "CLASSIFICATION_TYPE": "U", "NORAD_CAT_ID": 46277, "ELEMENT_SET_NO": 999, "REV_AT_EPOCH": 29312, "BSTAR": 0.00039241903, "MEAN_MOTION_DOT": 0.00015744, "MEAN_MOTION_DDOT": 0}, "tle": {"line1": "1 46277U 20061F   25345.97975353  .00015744  00000+0  39242-3 0  9995", "line2": "2 46277  97.2213  45.0871 0001927  57.5782 302.5651 15.40300762293127"}}, "geometry": {"type": "Point", "coordinates": [44.15665898339496, 9.291637610933407]}}, {"type": "Feature", "properties": {"norad_id": 46984, "name": "SENTINEL-6A", "group": "resource", "lat": -35.21287221579653, "lon": 145.05362025946675, "alt_km": 1339.3181582778188, "timestamp": "2025-12-12T05:47:28.429768+00:00", "meta": {"OBJECT_NAME": "SENTINEL-6A", "OBJECT_ID": "2020-086A", "EPOCH": "2025-12-11T20:37:32.818368", "MEAN_MOTION": 12.80930603, "ECCENTRICITY": 0.00077415, "INCLINATION": 66.0388, "RA_OF_ASC_NODE": 164.1366, "ARG_OF_PERICENTER": 269.2307, "MEAN_ANOMALY": 90.7821, "EPHEMERIS_TYPE": 0, "CLASSIFICATION_TYPE": "U", "NORAD_CAT_ID": 46984, "ELEMENT_SET_NO": 999, "REV_AT_EPOCH": 23633, "BSTAR": 0.00012280627, "MEAN_MOTION_DOT": -3.3e-07, "MEAN_MOTION_DDOT": 0}, "tle": {"line1": "1 46984U 20086A   25345.85940762 -.00000033  00000+0  12281-3 0  9990", "line2": "2 46984  66.0388 164.1366 0007741 269.2307  90.7821 12.80930603236335"}}, "geometry": {"type": "Point", "coordinates": [145.05362025946675, -35.21287221579653]}}, {"type": "Feature", "properties": {"norad_id": 48079, "name": "GAOFEN-12 02", "group": "resource", "lat": -37.640518967658984, "lon": 154.0351491424808, "alt_km": 634.7042504290157, "timestamp": "2025-12-12T05:47:28.429778+00:00", "meta": {"OBJECT_NAME": "GAOFEN-12 02", "OBJECT_ID": "2021-026A", "EPOCH": "2025-12-11T23:56:40.187040", "MEAN_MOTION": 14.80673775, "ECCENTRICITY": 0.00035246, "INCLINATION": 97.9851, "RA_OF_ASC_NODE": 340.0076, "ARG_OF_PERICENTER": 102.6076, "MEAN_ANOMALY": 257.553, "EPHEMERIS_TYPE": 0, "CLASSIFICATION_TYPE": "U", "NORAD_CAT_ID": 48079, "ELEMENT_SET_NO": 999, "REV_AT_EPOCH": 25406, "BSTAR": 0.00011741286, "MEAN_MOTION_DOT": 8.5e-06, "MEAN_MOTION_DDOT": 0}, "tle": {"line1": "1 48079U 21026A   25345.99768735  .00000850  00000+0  11741-3 0  9991", "line2": "2 48079  97.9851 340.0076 0003524 102.6076 257.5530 14.80673775254067"}}, "geometry": {"type": "Point", "coordinates": [154.0351491424808, -37.640518967658984]}}, {"type": "Feature", "properties": {"norad_id": 48268, "name": "PLEIADES NEO 3", "group": "resource", "lat": -74.70984597292491, "lon": 89.18780319651619, "alt_km": 632.3116769661583, "timestamp": "2025-12-12T05:47:28.429789+00:00", "meta": {"OBJECT_NAME": "PLEIADES NEO 3", "OBJECT_ID": "2021-034A", "EPOCH": "2025-12-11T20:24:47.310048", "MEAN_MOTION": 14.81680713, "ECCENTRICITY": 0.00014143, "INCLINATION": 97.894, "RA_OF_ASC_NODE": 58.3039, "ARG_OF_PERICENTER": 92.7812, "MEAN_ANOMALY": 267.3563, "EPHEMERIS_TYPE": 0, "CLASSIFICATION_TYPE": "U", "NORAD_CAT_ID": 48268, "ELEMENT_SET_NO": 999, "REV_AT_EPOCH": 24991, "BSTAR": 0.00023994811, "MEAN_MOTION_DOT": 1.837e-05, "MEAN_MOTION_DDOT": 0}, "tle": {"line1": "1 48268U 21034A   25345.85054757  .00001837  00000+0  23995-3 0  9997", "line2": "2 48268  97.8940  58.3039 0001414  92.7812 267.3563 14.81680713249910"}}, "geometry": {"type": "Point", "coordinates": [89.18780319651619, -74.70984597292491]}}, {"type": "Feature", "properties": {"norad_id": 49070, "name": "PLEIADES NEO 4", "group": "resource", "lat": 74.63381879621484, "lon": -90.99004327738422, "alt_km": 616.0512605195581, "timestamp": "2025-12-12T05:47:28.429799+00:00", "meta": {"OBJECT_NAME": "PLEIADES NEO 4", "OBJECT_ID": "2021-073E", "EPOCH": "2025-12-12T00:27:53.700192", "MEAN_MOTION": 14.81675424, "ECCENTRICITY": 0.0001288, "INCLINATION": 97.8942, "RA_OF_ASC_NODE": 58.4666, "ARG_OF_PERICENTER": 91.2005, "MEAN_ANOMALY": 268.9356, "EPHEMERIS_TYPE": 0, "CLASSIFICATION_TYPE": "U", "NORAD_CAT_ID": 49070, "ELEMENT_SET_NO": 999, "REV_AT_EPOCH": 23365, "BSTAR": -2.9116991e-05, "MEAN_MOTION_DOT": -2.81e-06, "MEAN_MOTION_DDOT": 0}, "tle": {"line1": "1 49070U 21073E   25346.01937153 -.00000281  00000+0 -29117-4 0  9998", "line2": "2 49070  97.8942  58.4666 0001288  91.2005 268.9356 14.81675424233652"}}, "geometry": {"type": "Point", "coordinates": [-90.99004327738422, 74.63381879621484]}}, {"type": "Feature", "properties": {"norad_id": 49260, "name": "LANDSAT 9", "group": "resource", "lat": 15.818143996259032, "lon": -123.29630266807823, "alt_km": 703.0976768042274, "timestamp": "2025-12-12T05:47:28.429809+00:00", "meta": {"OBJECT_NAME": "LANDSAT 9", "OBJECT_ID": "2021-088A", "EPOCH": "2025-12-11T15:51:24.736608", "MEAN_MOTION": 14.57096516, "ECCENTRICITY": 0.00011639, "INCLINATION": 98.2094, "RA_OF_ASC_NODE": 53.7875, "ARG_OF_PERICENTER": 87.9655, "MEAN_ANOMALY": 272.1677, "EPHEMERIS_TYPE": 0, "CLASSIFICATION_TYPE": "U", "NORAD_CAT_ID": 49260, "ELEMENT_SET_NO": 999, "REV_AT_EPOCH": 22369, "BSTAR": 0.00016882215, "MEAN_MOTION_DOT": 7.15e-06, "MEAN_MOTION_DDOT": 0}, "tle": {"line1": "1 49260U 21088A   25345.66070297  .00000715  00000+0  16882-3 0  9996", "line2": "2 49260  98.2094  53.7875 0001163  87.9655 272.1677 14.57096516223699"}}, "geometry": {"type": "Point", "coordinates": [-123.29630266807823, 15.818143996259032]}}]}